[
    {
        "Altitude(m)": 604969.0891030801,
        "Argument of Periapsis(deg)": 0.0,
        "Eccentricity": 0.0,
        "Inclination(deg)": 60.0,
        "Latitude(deg)": -0.09263293638054428,
        "Longitude(deg)": 9.977527792102856,
        "Mean Anomaly(deg)": 0.0,
        "RAAN(deg)": 110.00000000000001,
        "Satellite Name": "Test1 484",
        "Satellite Number": 484,
        "Semi-Major Axis(m)": 6980739.136638005,
        "Time(s)": 0
    },
    {
        "Altitude(m)": 604900.028796697,
        "Argument of Periapsis(deg)": 0.00010418945913296404,
        "Eccentricity": 0.0,
        "Inclination(deg)": 60.0,
        "Latitude(deg)": 0.44779350696506753,
        "Longitude(deg)": 10.245649730436512,
        "Mean Anomaly(deg)": 0.6201061454618275,
        "RAAN(deg)": 109.99957995086025,
        "Satellite Name": "Test1 484",
        "Satellite Number": 484,
        "Semi-Major Axis(m)": 6980739.136638005,
        "Time(s)": 10
    }
]